{
  "norad_id": 64944,
  "name": "STARLINK-34373",
  "history": [
    {
      "epoch": "2026-03-28T21:35:28.819104Z",
      "apogee_km": 551.0351886566159,
      "perigee_km": 547.9620894871232,
      "latitude_deg": 1.3941879817227756e-05,
      "longitude_deg": 162.794357853136,
      "height_km": 551.7447442156722,
      "semi_major_axis_km": 6927.635639071869,
      "eccentricity": 0.0002218,
      "inclination_deg": 97.6048,
      "raan_deg": 312.9779,
      "arg_perigee_deg": 57.9321,
      "mean_anomaly_deg": 302.2121,
      "mean_motion_rev_day": 15.0565408
    },
    {
      "epoch": "2026-03-29T03:58:16.977792Z",
      "apogee_km": 551.0208812952751,
      "perigee_km": 548.0142792074466,
      "latitude_deg": -5.608073450983013e-05,
      "longitude_deg": 67.09368689605688,
      "height_km": 551.8354231263,
      "semi_major_axis_km": 6927.654580251361,
      "eccentricity": 0.000217,
      "inclination_deg": 97.6049,
      "raan_deg": 313.2399,
      "arg_perigee_deg": 60.3336,
      "mean_anomaly_deg": 299.8106,
      "mean_motion_rev_day": 15.05647905
    },
    {
      "epoch": "2026-03-30T02:18:05.588064Z",
      "apogee_km": 551.1053817727588,
      "perigee_km": 547.9384717709745,
      "latitude_deg": 5.958688569082817e-06,
      "longitude_deg": 92.14146891747681,
      "height_km": 551.8310496751362,
      "semi_major_axis_km": 6927.658926771866,
      "eccentricity": 0.00022857,
      "inclination_deg": 97.6046,
      "raan_deg": 314.1573,
      "arg_perigee_deg": 61.6237,
      "mean_anomaly_deg": 298.522,
      "mean_motion_rev_day": 15.05646488
    }
  ]
}